[{"OBJECT_NAME":"SCS-01 F","OBJECT_ID":"2025-100F","EPOCH":"2026-03-09T22:02:58.148448","MEAN_MOTION":15.20887248,"ECCENTRICITY":0.00088681,"INCLINATION":97.3705,"RA_OF_ASC_NODE":143.8729,"ARG_OF_PERICENTER":296.4312,"MEAN_ANOMALY":63.6013,"EPHEMERIS_TYPE":0,"CLASSIFICATION_TYPE":"U","NORAD_CAT_ID":63987,"ELEMENT_SET_NO":999,"REV_AT_EPOCH":4554,"BSTAR":0.0009265562,"MEAN_MOTION_DOT":0.0002047,"MEAN_MOTION_DDOT":0},{"OBJECT_NAME":"OBJECT X","OBJECT_ID":"2025-313X","EPOCH":"2026-03-09T22:11:10.492800","MEAN_MOTION":15.22236742,"ECCENTRICITY":0.00140663,"INCLINATION":97.4034,"RA_OF_ASC_NODE":145.2465,"ARG_OF_PERICENTER":355.6443,"MEAN_ANOMALY":4.4668,"EPHEMERIS_TYPE":0,"CLASSIFICATION_TYPE":"U","NORAD_CAT_ID":67269,"ELEMENT_SET_NO":999,"REV_AT_EPOCH":1085,"BSTAR":0.0006925154,"MEAN_MOTION_DOT":0.00015915,"MEAN_MOTION_DDOT":0}]
